[{"OBJECT_NAME":"NUSHSAT1","OBJECT_ID":"2025-052B","EPOCH":"2026-03-09T15:31:41.225952","MEAN_MOTION":15.31903202,"ECCENTRICITY":0.0005501,"INCLINATION":97.4095,"RA_OF_ASC_NODE":325.7239,"ARG_OF_PERICENTER":84.7512,"MEAN_ANOMALY":275.4357,"EPHEMERIS_TYPE":0,"CLASSIFICATION_TYPE":"U","NORAD_CAT_ID":63211,"ELEMENT_SET_NO":999,"REV_AT_EPOCH":5488,"BSTAR":0.00074857,"MEAN_MOTION_DOT":0.00023034,"MEAN_MOTION_DDOT":0},{"OBJECT_NAME":"STARLINK-36796","OBJECT_ID":"2026-026B","EPOCH":"2026-03-09T22:00:01.999584","MEAN_MOTION":15.45185741,"ECCENTRICITY":0.00015889,"INCLINATION":97.2844,"RA_OF_ASC_NODE":123.4256,"ARG_OF_PERICENTER":75.696,"MEAN_ANOMALY":314.6679,"EPHEMERIS_TYPE":0,"CLASSIFICATION_TYPE":"U","NORAD_CAT_ID":67722,"ELEMENT_SET_NO":999,"REV_AT_EPOCH":535,"BSTAR":-0.043649148,"MEAN_MOTION_DOT":-0.01861322,"MEAN_MOTION_DDOT":0}]
